{
  "type": "FeatureCollection",
  "features": [
    {
      "type": "Feature",
      "properties": {
        "norad_id": 31788,
        "name": "FENGYUN 1C DEB",
        "group": "fengyun-1c-debris",
        "lat": 3.190787354379161,
        "lon": -52.11147253434369,
        "alt_km": 1048.5860451949102,
        "timestamp": "2025-12-10T16:57:11.920861+00:00",
        "meta_object_name": "FENGYUN 1C DEB",
        "meta_object_id": "1999-025CGP",
        "meta_epoch": "2025-12-10T04:28:15.254688",
        "meta_mean_motion": 13.45068052,
        "meta_eccentricity": 0.04629782,
        "meta_inclination": 102.5563,
        "meta_ra_of_asc_node": 126.5263,
        "meta_arg_of_pericenter": 92.4504,
        "meta_mean_anomaly": 81.5855,
        "meta_ephemeris_type": 0,
        "meta_classification_type": "U",
        "meta_norad_cat_id": 31788,
        "meta_element_set_no": 999,
        "meta_rev_at_epoch": 90570,
        "meta_bstar": 0.0031049336,
        "meta_mean_motion_dot": 3.437e-05,
        "meta_mean_motion_ddot": 0,
        "tle_line1": "1 31788U 99025CGP 25344.18628767  .00003437  00000+0  31049-2 0  9990",
        "tle_line2": "2 31788 102.5563 126.5263 0462978  92.4504  81.5855 13.45068052905703"
      },
      "geometry": {
        "type": "Point",
        "coordinates": [
          -52.11147253434369,
          3.190787354379161
        ]
      }
    },
    {
      "type": "Feature",
      "properties": {
        "norad_id": 31805,
        "name": "FENGYUN 1C DEB",
        "group": "fengyun-1c-debris",
        "lat": -26.15478842951583,
        "lon": -26.80919625524606,
        "alt_km": 1207.9672264448418,
        "timestamp": "2025-12-10T16:57:11.920871+00:00",
        "meta_object_name": "FENGYUN 1C DEB",
        "meta_object_id": "1999-025CGT",
        "meta_epoch": "2025-12-09T17:07:24.948480",
        "meta_mean_motion": 14.0277564,
        "meta_eccentricity": 0.04470809,
        "meta_inclination": 98.3643,
        "meta_ra_of_asc_node": 328.1317,
        "meta_arg_of_pericenter": 167.477,
        "meta_mean_anomaly": 193.7957,
        "meta_ephemeris_type": 0,
        "meta_classification_type": "U",
        "meta_norad_cat_id": 31805,
        "meta_element_set_no": 999,
        "meta_rev_at_epoch": 62321,
        "meta_bstar": 0.0016131981,
        "meta_mean_motion_dot": 6.049e-05,
        "meta_mean_motion_ddot": 0,
        "tle_line1": "1 31805U 99025CGT 25343.71348320  .00006049  00000+0  16132-2 0  9990",
        "tle_line2": "2 31805  98.3643 328.1317 0447080 167.4770 193.7957 14.02775640623213"
      },
      "geometry": {
        "type": "Point",
        "coordinates": [
          -26.80919625524606,
          -26.15478842951583
        ]
      }
    },
    {
      "type": "Feature",
      "properties": {
        "norad_id": 31807,
        "name": "FENGYUN 1C DEB",
        "group": "fengyun-1c-debris",
        "lat": -68.60398947761652,
        "lon": 139.5726928833592,
        "alt_km": 764.1916031022365,
        "timestamp": "2025-12-10T16:57:11.920881+00:00",
        "meta_object_name": "FENGYUN 1C DEB",
        "meta_object_id": "1999-025CGV",
        "meta_epoch": "2025-12-08T02:26:12.083136",
        "meta_mean_motion": 14.51978822,
        "meta_eccentricity": 0.01055806,
        "meta_inclination": 99.0774,
        "meta_ra_of_asc_node": 112.6776,
        "meta_arg_of_pericenter": 176.4224,
        "meta_mean_anomaly": 183.7748,
        "meta_ephemeris_type": 0,
        "meta_classification_type": "U",
        "meta_norad_cat_id": 31807,
        "meta_element_set_no": 999,
        "meta_rev_at_epoch": 65238,
        "meta_bstar": 0.0014607237,
        "meta_mean_motion_dot": 6.292e-05,
        "meta_mean_motion_ddot": 0,
        "tle_line1": "1 31807U 99025CGV 25342.10152874  .00006292  00000+0  14607-2 0  9996",
        "tle_line2": "2 31807  99.0774 112.6776 0105580 176.4224 183.7748 14.51978822652381"
      },
      "geometry": {
        "type": "Point",
        "coordinates": [
          139.5726928833592,
          -68.60398947761652
        ]
      }
    },
    {
      "type": "Feature",
      "properties": {
        "norad_id": 31808,
        "name": "FENGYUN 1C DEB",
        "group": "fengyun-1c-debris",
        "lat": -50.43961910913071,
        "lon": -177.21075298757196,
        "alt_km": 734.3187417877289,
        "timestamp": "2025-12-10T16:57:11.920891+00:00",
        "meta_object_name": "FENGYUN 1C DEB",
        "meta_object_id": "1999-025CGW",
        "meta_epoch": "2025-12-06T07:42:11.514240",
        "meta_mean_motion": 14.56750556,
        "meta_eccentricity": 0.00373271,
        "meta_inclination": 99.2036,
        "meta_ra_of_asc_node": 166.6311,
        "meta_arg_of_pericenter": 160.1582,
        "meta_mean_anomaly": 200.1075,
        "meta_ephemeris_type": 0,
        "meta_classification_type": "U",
        "meta_norad_cat_id": 31808,
        "meta_element_set_no": 999,
        "meta_rev_at_epoch": 57509,
        "meta_bstar": 0.0097701777,
        "meta_mean_motion_dot": 0.00044336,
        "meta_mean_motion_ddot": 0,
        "tle_line1": "1 31808U 99025CGW 25340.32096660  .00044336  00000+0  97702-2 0  9997",
        "tle_line2": "2 31808  99.2036 166.6311 0037327 160.1582 200.1075 14.56750556575095"
      },
      "geometry": {
        "type": "Point",
        "coordinates": [
          -177.21075298757196,
          -50.43961910913071
        ]
      }
    },
    {
      "type": "Feature",
      "properties": {
        "norad_id": 31810,
        "name": "FENGYUN 1C DEB",
        "group": "fengyun-1c-debris",
        "lat": -46.87279146205518,
        "lon": 171.20859466737187,
        "alt_km": 718.9388224546474,
        "timestamp": "2025-12-10T16:57:11.920901+00:00",
        "meta_object_name": "FENGYUN 1C DEB",
        "meta_object_id": "1999-025CGY",
        "meta_epoch": "2025-12-10T07:37:01.947360",
        "meta_mean_motion": 14.45814405,
        "meta_eccentricity": 0.0214419,
        "meta_inclination": 98.2694,
        "meta_ra_of_asc_node": 359.7613,
        "meta_arg_of_pericenter": 147.665,
        "meta_mean_anomaly": 213.7896,
        "meta_ephemeris_type": 0,
        "meta_classification_type": "U",
        "meta_norad_cat_id": 31810,
        "meta_element_set_no": 999,
        "meta_rev_at_epoch": 64379,
        "meta_bstar": 0.00075536,
        "meta_mean_motion_dot": 3.515e-05,
        "meta_mean_motion_ddot": 0,
        "tle_line1": "1 31810U 99025CGY 25344.31738365  .00003515  00000+0  75536-3 0  9994",
        "tle_line2": "2 31810  98.2694 359.7613 0214419 147.6650 213.7896 14.45814405643798"
      },
      "geometry": {
        "type": "Point",
        "coordinates": [
          171.20859466737187,
          -46.87279146205518
        ]
      }
    },
    {
      "type": "Feature",
      "properties": {
        "norad_id": 31813,
        "name": "FENGYUN 1C DEB",
        "group": "fengyun-1c-debris",
        "lat": 59.19712103442987,
        "lon": -99.82496651870215,
        "alt_km": 793.8962467729298,
        "timestamp": "2025-12-10T16:57:11.920910+00:00",
        "meta_object_name": "FENGYUN 1C DEB",
        "meta_object_id": "1999-025CHB",
        "meta_epoch": "2025-12-07T10:33:28.654272",
        "meta_mean_motion": 14.49754247,
        "meta_eccentricity": 0.01364096,
        "meta_inclination": 99.4272,
        "meta_ra_of_asc_node": 60.3431,
        "meta_arg_of_pericenter": 349.4228,
        "meta_mean_anomaly": 10.41,
        "meta_ephemeris_type": 0,
        "meta_classification_type": "U",
        "meta_norad_cat_id": 31813,
        "meta_element_set_no": 999,
        "meta_rev_at_epoch": 97179,
        "meta_bstar": 0.00069758631,
        "meta_mean_motion_dot": 2.966e-05,
        "meta_mean_motion_ddot": 0,
        "tle_line1": "1 31813U 99025CHB 25341.43991498  .00002966  00000+0  69759-3 0  9994",
        "tle_line2": "2 31813  99.4272  60.3431 0136409 349.4228  10.4100 14.49754247971799"
      },
      "geometry": {
        "type": "Point",
        "coordinates": [
          -99.82496651870215,
          59.19712103442987
        ]
      }
    },
    {
      "type": "Feature",
      "properties": {
        "norad_id": 31814,
        "name": "FENGYUN 1C DEB",
        "group": "fengyun-1c-debris",
        "lat": 3.698754831803579,
        "lon": -144.75610812250017,
        "alt_km": 891.7645036226722,
        "timestamp": "2025-12-10T16:57:11.920921+00:00",
        "meta_object_name": "FENGYUN 1C DEB",
        "meta_object_id": "1999-025CHC",
        "meta_epoch": "2025-12-07T21:17:57.257664",
        "meta_mean_motion": 13.6646422,
        "meta_eccentricity": 0.02297556,
        "meta_inclination": 99.5721,
        "meta_ra_of_asc_node": 31.8308,
        "meta_arg_of_pericenter": 227.9544,
        "meta_mean_anomaly": 130.1846,
        "meta_ephemeris_type": 0,
        "meta_classification_type": "U",
        "meta_norad_cat_id": 31814,
        "meta_element_set_no": 999,
        "meta_rev_at_epoch": 61733,
        "meta_bstar": 0.00084873009,
        "meta_mean_motion_dot": 7.98e-06,
        "meta_mean_motion_ddot": 0,
        "tle_line1": "1 31814U 99025CHC 25341.88746826  .00000798  00000+0  84873-3 0  9992",
        "tle_line2": "2 31814  99.5721  31.8308 0229755 227.9544 130.1846 13.66464220617335"
      },
      "geometry": {
        "type": "Point",
        "coordinates": [
          -144.75610812250017,
          3.698754831803579
        ]
      }
    }
  ]
}